{"type": "FeatureCollection", "features": [{"type": "Feature", "properties": {"norad_id": 28890, "name": "BEIJING 1", "group": "dmc", "lat": 42.32861443274492, "lon": -67.61631546863727, "alt_km": 670.140546029309, "timestamp": "2025-12-03T06:58:42.907867+00:00", "meta": {"OBJECT_NAME": "BEIJING 1", "OBJECT_ID": "2005-043A", "EPOCH": "2025-12-02T20:30:28.316160", "MEAN_MOTION": 14.63350515, "ECCENTRICITY": 0.0014807, "INCLINATION": 98.2649, "RA_OF_ASC_NODE": 104.3385, "ARG_OF_PERICENTER": 171.4254, "MEAN_ANOMALY": 188.7204, "EPHEMERIS_TYPE": 0, "CLASSIFICATION_TYPE": "U", "NORAD_CAT_ID": 28890, "ELEMENT_SET_NO": 999, "REV_AT_EPOCH": 7193, "BSTAR": 0.00012127, "MEAN_MOTION_DOT": 5.78e-06, "MEAN_MOTION_DDOT": 0}, "tle": {"line1": "1 28890U 05043A   25336.85449440  .00000578  00000+0  12127-3 0  9991", "line2": "2 28890  98.2649 104.3385 0014807 171.4254 188.7204 14.63350515 71938"}}, "geometry": {"type": "Point", "coordinates": [-67.61631546863727, 42.32861443274492]}}, {"type": "Feature", "properties": {"norad_id": 33320, "name": "HUANJING 1A (HJ-1A)", "group": "dmc", "lat": -25.255369489361577, "lon": 142.34755733232413, "alt_km": 635.7988076631073, "timestamp": "2025-12-03T06:58:42.907892+00:00", "meta": {"OBJECT_NAME": "HUANJING 1A (HJ-1A)", "OBJECT_ID": "2008-041A", "EPOCH": "2025-12-02T20:20:36.060576", "MEAN_MOTION": 14.83342967, "ECCENTRICITY": 0.0020663, "INCLINATION": 97.6535, "RA_OF_ASC_NODE": 325.56, "ARG_OF_PERICENTER": 64.9998, "MEAN_ANOMALY": 295.336, "EPHEMERIS_TYPE": 0, "CLASSIFICATION_TYPE": "U", "NORAD_CAT_ID": 33320, "ELEMENT_SET_NO": 999, "REV_AT_EPOCH": 92929, "BSTAR": 0.00025105, "MEAN_MOTION_DOT": 2.013e-05, "MEAN_MOTION_DDOT": 0}, "tle": {"line1": "1 33320U 08041A   25336.84763959  .00002013  00000+0  25105-3 0  9995", "line2": "2 33320  97.6535 325.5600 0020663  64.9998 295.3360 14.83342967929297"}}, "geometry": {"type": "Point", "coordinates": [142.34755733232413, -25.255369489361577]}}, {"type": "Feature", "properties": {"norad_id": 33321, "name": "HUANJING 1B (HJ-1B)", "group": "dmc", "lat": 81.14566125955328, "lon": -89.79270813447883, "alt_km": 588.0399254859494, "timestamp": "2025-12-03T06:58:42.907907+00:00", "meta": {"OBJECT_NAME": "HUANJING 1B (HJ-1B)", "OBJECT_ID": "2008-041B", "EPOCH": "2025-12-02T20:52:41.187360", "MEAN_MOTION": 14.82779275, "ECCENTRICITY": 0.0038144, "INCLINATION": 97.6396, "RA_OF_ASC_NODE": 329.304, "ARG_OF_PERICENTER": 106.9623, "MEAN_ANOMALY": 253.5777, "EPHEMERIS_TYPE": 0, "CLASSIFICATION_TYPE": "U", "NORAD_CAT_ID": 33321, "ELEMENT_SET_NO": 999, "REV_AT_EPOCH": 92931, "BSTAR": 0.00019707, "MEAN_MOTION_DOT": 1.562e-05, "MEAN_MOTION_DDOT": 0}, "tle": {"line1": "1 33321U 08041B   25336.86992115  .00001562  00000+0  19707-3 0  9995", "line2": "2 33321  97.6396 329.3040 0038144 106.9623 253.5777 14.82779275929314"}}, "geometry": {"type": "Point", "coordinates": [-89.79270813447883, 81.14566125955328]}}, {"type": "Feature", "properties": {"norad_id": 33446, "name": "YAOGAN-4", "group": "dmc", "lat": 1.8206326402006623, "lon": -92.77000113721301, "alt_km": 613.7639202307919, "timestamp": "2025-12-03T06:58:42.907919+00:00", "meta": {"OBJECT_NAME": "YAOGAN-4", "OBJECT_ID": "2008-061A", "EPOCH": "2025-12-02T19:37:56.076096", "MEAN_MOTION": 14.82631045, "ECCENTRICITY": 0.0014458, "INCLINATION": 97.9168, "RA_OF_ASC_NODE": 267.0155, "ARG_OF_PERICENTER": 356.4345, "MEAN_ANOMALY": 3.6763, "EPHEMERIS_TYPE": 0, "CLASSIFICATION_TYPE": "U", "NORAD_CAT_ID": 33446, "ELEMENT_SET_NO": 999, "REV_AT_EPOCH": 91656, "BSTAR": 0.00026598, "MEAN_MOTION_DOT": 2.092e-05, "MEAN_MOTION_DDOT": 0}, "tle": {"line1": "1 33446U 08061A   25336.81801014  .00002092  00000+0  26598-3 0  9992", "line2": "2 33446  97.9168 267.0155 0014458 356.4345   3.6763 14.82631045916566"}}, "geometry": {"type": "Point", "coordinates": [-92.77000113721301, 1.8206326402006623]}}, {"type": "Feature", "properties": {"norad_id": 35681, "name": "DEIMOS-1", "group": "dmc", "lat": 33.60056239144496, "lon": 133.16692707434908, "alt_km": 642.4243277443966, "timestamp": "2025-12-03T06:58:42.907930+00:00", "meta": {"OBJECT_NAME": "DEIMOS-1", "OBJECT_ID": "2009-041A", "EPOCH": "2025-12-02T19:25:40.246176", "MEAN_MOTION": 14.7492748, "ECCENTRICITY": 0.000267, "INCLINATION": 97.7146, "RA_OF_ASC_NODE": 137.8756, "ARG_OF_PERICENTER": 97.7893, "MEAN_ANOMALY": 262.3619, "EPHEMERIS_TYPE": 0, "CLASSIFICATION_TYPE": "U", "NORAD_CAT_ID": 35681, "ELEMENT_SET_NO": 999, "REV_AT_EPOCH": 87793, "BSTAR": 0.0001543, "MEAN_MOTION_DOT": 9.89e-06, "MEAN_MOTION_DDOT": 0}, "tle": {"line1": "1 35681U 09041A   25336.80949359  .00000989  00000+0  15430-3 0  9994", "line2": "2 35681  97.7146 137.8756 0002670  97.7893 262.3619 14.74927480877933"}}, "geometry": {"type": "Point", "coordinates": [133.16692707434908, 33.60056239144496]}}, {"type": "Feature", "properties": {"norad_id": 35683, "name": "UK-DMC 2", "group": "dmc", "lat": 26.08115474007117, "lon": 108.58577693184438, "alt_km": 642.1855498607547, "timestamp": "2025-12-03T06:58:42.907941+00:00", "meta": {"OBJECT_NAME": "UK-DMC 2", "OBJECT_ID": "2009-041C", "EPOCH": "2025-12-02T21:05:41.254944", "MEAN_MOTION": 14.75585673, "ECCENTRICITY": 0.0001278, "INCLINATION": 97.8556, "RA_OF_ASC_NODE": 112.0608, "ARG_OF_PERICENTER": 103.1985, "MEAN_ANOMALY": 256.9367, "EPHEMERIS_TYPE": 0, "CLASSIFICATION_TYPE": "U", "NORAD_CAT_ID": 35683, "ELEMENT_SET_NO": 999, "REV_AT_EPOCH": 87761, "BSTAR": 0.00021482, "MEAN_MOTION_DOT": 1.416e-05, "MEAN_MOTION_DDOT": 0}, "tle": {"line1": "1 35683U 09041C   25336.87894971  .00001416  00000+0  21482-3 0  9992", "line2": "2 35683  97.8556 112.0608 0001278 103.1985 256.9367 14.75585673877618"}}, "geometry": {"type": "Point", "coordinates": [108.58577693184438, 26.08115474007117]}}, {"type": "Feature", "properties": {"norad_id": 40715, "name": "DMC3-FM1", "group": "dmc", "lat": 75.75772995012272, "lon": 56.895342784354376, "alt_km": 606.2298200129335, "timestamp": "2025-12-03T06:58:42.907952+00:00", "meta": {"OBJECT_NAME": "DMC3-FM1", "OBJECT_ID": "2015-032A", "EPOCH": "2025-12-02T20:49:15.644352", "MEAN_MOTION": 14.8541191, "ECCENTRICITY": 0.0005372, "INCLINATION": 97.67, "RA_OF_ASC_NODE": 204.4192, "ARG_OF_PERICENTER": 356.1771, "MEAN_ANOMALY": 3.9402, "EPHEMERIS_TYPE": 0, "CLASSIFICATION_TYPE": "U", "NORAD_CAT_ID": 40715, "ELEMENT_SET_NO": 999, "REV_AT_EPOCH": 56076, "BSTAR": 0.00013741, "MEAN_MOTION_DOT": 1.132e-05, "MEAN_MOTION_DDOT": 0}, "tle": {"line1": "1 40715U 15032A   25336.86754218  .00001132  00000+0  13741-3 0  9993", "line2": "2 40715  97.6700 204.4192 0005372 356.1771   3.9402 14.85411910560763"}}, "geometry": {"type": "Point", "coordinates": [56.895342784354376, 75.75772995012272]}}, {"type": "Feature", "properties": {"norad_id": 40716, "name": "DMC3-FM2", "group": "dmc", "lat": -18.29368426890031, "lon": -151.18057439760477, "alt_km": 613.3361924929795, "timestamp": "2025-12-03T06:58:42.907962+00:00", "meta": {"OBJECT_NAME": "DMC3-FM2", "OBJECT_ID": "2015-032B", "EPOCH": "2025-12-02T21:21:40.283712", "MEAN_MOTION": 14.85413142, "ECCENTRICITY": 0.0006024, "INCLINATION": 97.6757, "RA_OF_ASC_NODE": 205.8777, "ARG_OF_PERICENTER": 0.141, "MEAN_ANOMALY": 359.9806, "EPHEMERIS_TYPE": 0, "CLASSIFICATION_TYPE": "U", "NORAD_CAT_ID": 40716, "ELEMENT_SET_NO": 999, "REV_AT_EPOCH": 56076, "BSTAR": 0.00013965, "MEAN_MOTION_DOT": 1.152e-05, "MEAN_MOTION_DDOT": 0}, "tle": {"line1": "1 40716U 15032B   25336.89004958  .00001152  00000+0  13965-3 0  9996", "line2": "2 40716  97.6757 205.8777 0006024   0.1410 359.9806 14.85413142560762"}}, "geometry": {"type": "Point", "coordinates": [-151.18057439760477, -18.29368426890031]}}, {"type": "Feature", "properties": {"norad_id": 40717, "name": "DMC3-FM3", "group": "dmc", "lat": -45.92763047100987, "lon": 19.87746411300223, "alt_km": 621.7379869285132, "timestamp": "2025-12-03T06:58:42.907972+00:00", "meta": {"OBJECT_NAME": "DMC3-FM3", "OBJECT_ID": "2015-032C", "EPOCH": "2025-12-02T21:52:43.503168", "MEAN_MOTION": 14.85407136, "ECCENTRICITY": 0.000538, "INCLINATION": 97.6811, "RA_OF_ASC_NODE": 207.525, "ARG_OF_PERICENTER": 2.2851, "MEAN_ANOMALY": 357.8388, "EPHEMERIS_TYPE": 0, "CLASSIFICATION_TYPE": "U", "NORAD_CAT_ID": 40717, "ELEMENT_SET_NO": 999, "REV_AT_EPOCH": 56077, "BSTAR": 0.00011376, "MEAN_MOTION_DOT": 9.28e-06, "MEAN_MOTION_DDOT": 0}, "tle": {"line1": "1 40717U 15032C   25336.91161462  .00000928  00000+0  11376-3 0  9998", "line2": "2 40717  97.6811 207.5250 0005380   2.2851 357.8388 14.85407136560774"}}, "geometry": {"type": "Point", "coordinates": [19.87746411300223, -45.92763047100987]}}]}